{
  "type": "FeatureCollection",
  "features": [
    {
      "type": "Feature",
      "properties": {
        "norad_id": 34350,
        "name": "IRIDIUM 33 DEB",
        "group": "iridium-33-debris",
        "lat": -41.050704936652544,
        "lon": -4.626801416951644,
        "alt_km": 761.1602517522197,
        "timestamp": "2025-12-22T11:33:20.824723+00:00",
        "meta_object_name": "IRIDIUM 33 DEB",
        "meta_object_id": "1997-051ES",
        "meta_epoch": "2025-12-21T13:03:35.322048",
        "meta_mean_motion": 14.45405822,
        "meta_eccentricity": 0.0023399,
        "meta_inclination": 86.3272,
        "meta_ra_of_asc_node": 358.9864,
        "meta_arg_of_pericenter": 108.1972,
        "meta_mean_anomaly": 16.6332,
        "meta_ephemeris_type": 0,
        "meta_classification_type": "U",
        "meta_norad_cat_id": 34350,
        "meta_element_set_no": 999,
        "meta_rev_at_epoch": 88420,
        "meta_bstar": 0.00025936,
        "meta_mean_motion_dot": 9.35e-06,
        "meta_mean_motion_ddot": 0,
        "tle_line1": "1 34350U 97051ES  25355.54415882  .00000935  00000+0  25936-3 0  9998",
        "tle_line2": "2 34350  86.3272 358.9864 0023399 108.1972  16.6332 14.45405822884200"
      },
      "geometry": {
        "type": "Point",
        "coordinates": [
          -4.626801416951644,
          -41.050704936652544
        ]
      }
    },
    {
      "type": "Feature",
      "properties": {
        "norad_id": 34366,
        "name": "IRIDIUM 33 DEB",
        "group": "iridium-33-debris",
        "lat": -51.79091483043844,
        "lon": -130.29653772759264,
        "alt_km": 727.9983022641736,
        "timestamp": "2025-12-22T11:33:20.824732+00:00",
        "meta_object_name": "IRIDIUM 33 DEB",
        "meta_object_id": "1997-051FJ",
        "meta_epoch": "2025-12-22T04:08:15.707328",
        "meta_mean_motion": 14.54126521,
        "meta_eccentricity": 0.0023008,
        "meta_inclination": 86.3687,
        "meta_ra_of_asc_node": 45.2106,
        "meta_arg_of_pericenter": 110.3257,
        "meta_mean_anomaly": 304.3234,
        "meta_ephemeris_type": 0,
        "meta_classification_type": "U",
        "meta_norad_cat_id": 34366,
        "meta_element_set_no": 999,
        "meta_rev_at_epoch": 88319,
        "meta_bstar": 0.00086403,
        "meta_mean_motion_dot": 3.684e-05,
        "meta_mean_motion_ddot": 0,
        "tle_line1": "1 34366U 97051FJ  25356.17240402  .00003684  00000+0  86403-3 0  9999",
        "tle_line2": "2 34366  86.3687  45.2106 0023008 110.3257 304.3234 14.54126521883191"
      },
      "geometry": {
        "type": "Point",
        "coordinates": [
          -130.29653772759264,
          -51.79091483043844
        ]
      }
    },
    {
      "type": "Feature",
      "properties": {
        "norad_id": 34375,
        "name": "IRIDIUM 33 DEB",
        "group": "iridium-33-debris",
        "lat": -38.12081993415819,
        "lon": 175.9676291408616,
        "alt_km": 890.4521340695273,
        "timestamp": "2025-12-22T11:33:20.824743+00:00",
        "meta_object_name": "IRIDIUM 33 DEB",
        "meta_object_id": "1997-051FT",
        "meta_epoch": "2025-12-21T18:54:05.228064",
        "meta_mean_motion": 14.18007741,
        "meta_eccentricity": 0.0103707,
        "meta_inclination": 86.4322,
        "meta_ra_of_asc_node": 179.0535,
        "meta_arg_of_pericenter": 98.4333,
        "meta_mean_anomaly": 284.1213,
        "meta_ephemeris_type": 0,
        "meta_classification_type": "U",
        "meta_norad_cat_id": 34375,
        "meta_element_set_no": 999,
        "meta_rev_at_epoch": 86840,
        "meta_bstar": 0.00033721,
        "meta_mean_motion_dot": 7.48e-06,
        "meta_mean_motion_ddot": 0,
        "tle_line1": "1 34375U 97051FT  25355.78756051  .00000748  00000+0  33721-3 0  9990",
        "tle_line2": "2 34375  86.4322 179.0535 0103707  98.4333 284.1213 14.18007741868407"
      },
      "geometry": {
        "type": "Point",
        "coordinates": [
          175.9676291408616,
          -38.12081993415819
        ]
      }
    },
    {
      "type": "Feature",
      "properties": {
        "norad_id": 34376,
        "name": "IRIDIUM 33 DEB",
        "group": "iridium-33-debris",
        "lat": 81.26941294538918,
        "lon": 157.2207886764929,
        "alt_km": 661.177398908053,
        "timestamp": "2025-12-22T11:33:20.824753+00:00",
        "meta_object_name": "IRIDIUM 33 DEB",
        "meta_object_id": "1997-051FU",
        "meta_epoch": "2025-12-21T12:07:24.797568",
        "meta_mean_motion": 14.62675501,
        "meta_eccentricity": 0.00281411,
        "meta_inclination": 86.2976,
        "meta_ra_of_asc_node": 2.5986,
        "meta_arg_of_pericenter": 137.7647,
        "meta_mean_anomaly": 222.5739,
        "meta_ephemeris_type": 0,
        "meta_classification_type": "U",
        "meta_norad_cat_id": 34376,
        "meta_element_set_no": 999,
        "meta_rev_at_epoch": 88135,
        "meta_bstar": 0.0010610953,
        "meta_mean_motion_dot": 5.451e-05,
        "meta_mean_motion_ddot": 0,
        "tle_line1": "1 34376U 97051FU  25355.50514812  .00005451  00000+0  10611-2 0  9996",
        "tle_line2": "2 34376  86.2976   2.5986 0028141 137.7647 222.5739 14.62675501881356"
      },
      "geometry": {
        "type": "Point",
        "coordinates": [
          157.2207886764929,
          81.26941294538918
        ]
      }
    },
    {
      "type": "Feature",
      "properties": {
        "norad_id": 34486,
        "name": "IRIDIUM 33 DEB",
        "group": "iridium-33-debris",
        "lat": 43.20525221730208,
        "lon": 10.923865256916104,
        "alt_km": 567.8421637806159,
        "timestamp": "2025-12-22T11:33:20.824764+00:00",
        "meta_object_name": "IRIDIUM 33 DEB",
        "meta_object_id": "1997-051GB",
        "meta_epoch": "2025-12-21T13:27:11.413728",
        "meta_mean_motion": 14.96156216,
        "meta_eccentricity": 0.0013923,
        "meta_inclination": 86.3924,
        "meta_ra_of_asc_node": 7.952,
        "meta_arg_of_pericenter": 87.2037,
        "meta_mean_anomaly": 39.211,
        "meta_ephemeris_type": 0,
        "meta_classification_type": "U",
        "meta_norad_cat_id": 34486,
        "meta_element_set_no": 999,
        "meta_rev_at_epoch": 89118,
        "meta_bstar": 0.0016335,
        "meta_mean_motion_dot": 0.00018477,
        "meta_mean_motion_ddot": 0,
        "tle_line1": "1 34486U 97051GB  25355.56054877  .00018477  00000+0  16335-2 0  9995",
        "tle_line2": "2 34486  86.3924   7.9520 0013923  87.2037  39.2110 14.96156216891181"
      },
      "geometry": {
        "type": "Point",
        "coordinates": [
          10.923865256916104,
          43.20525221730208
        ]
      }
    },
    {
      "type": "Feature",
      "properties": {
        "norad_id": 34487,
        "name": "IRIDIUM 33 DEB",
        "group": "iridium-33-debris",
        "lat": 9.77174795961494,
        "lon": 8.813856625271885,
        "alt_km": 748.6663227118825,
        "timestamp": "2025-12-22T11:33:20.824774+00:00",
        "meta_object_name": "IRIDIUM 33 DEB",
        "meta_object_id": "1997-051GC",
        "meta_epoch": "2025-12-21T19:41:03.774912",
        "meta_mean_motion": 14.4322687,
        "meta_eccentricity": 0.0033228,
        "meta_inclination": 86.3429,
        "meta_ra_of_asc_node": 8.4674,
        "meta_arg_of_pericenter": 100.1253,
        "meta_mean_anomaly": 76.4458,
        "meta_ephemeris_type": 0,
        "meta_classification_type": "U",
        "meta_norad_cat_id": 34487,
        "meta_element_set_no": 999,
        "meta_rev_at_epoch": 88379,
        "meta_bstar": 0.0001448,
        "meta_mean_motion_dot": 5.11e-06,
        "meta_mean_motion_ddot": 0,
        "tle_line1": "1 34487U 97051GC  25355.82018258  .00000511  00000+0  14480-3 0  9998",
        "tle_line2": "2 34487  86.3429   8.4674 0033228 100.1253  76.4458 14.43226870883795"
      },
      "geometry": {
        "type": "Point",
        "coordinates": [
          8.813856625271885,
          9.77174795961494
        ]
      }
    },
    {
      "type": "Feature",
      "properties": {
        "norad_id": 34488,
        "name": "IRIDIUM 33 DEB",
        "group": "iridium-33-debris",
        "lat": 21.907478946302085,
        "lon": 119.49846409684945,
        "alt_km": 475.40666544160376,
        "timestamp": "2025-12-22T11:33:20.824785+00:00",
        "meta_object_name": "IRIDIUM 33 DEB",
        "meta_object_id": "1997-051GD",
        "meta_epoch": "2025-12-20T21:13:54.490080",
        "meta_mean_motion": 15.31302202,
        "meta_eccentricity": 0.0010948,
        "meta_inclination": 86.3254,
        "meta_ra_of_asc_node": 301.7725,
        "meta_arg_of_pericenter": 38.0894,
        "meta_mean_anomaly": 322.1127,
        "meta_ephemeris_type": 0,
        "meta_classification_type": "U",
        "meta_norad_cat_id": 34488,
        "meta_element_set_no": 999,
        "meta_rev_at_epoch": 89364,
        "meta_bstar": 0.0030791,
        "meta_mean_motion_dot": 0.00094223,
        "meta_mean_motion_ddot": 0,
        "tle_line1": "1 34488U 97051GD  25354.88465845  .00094223  00000+0  30791-2 0  9997",
        "tle_line2": "2 34488  86.3254 301.7725 0010948  38.0894 322.1127 15.31302202893643"
      },
      "geometry": {
        "type": "Point",
        "coordinates": [
          119.49846409684945,
          21.907478946302085
        ]
      }
    }
  ]
}